GLOBALSTAR M069         
1 31573U 07020C   26196.13611549 -.00000113  00000+0 -18635-3 0  9994
2 31573  52.0011 173.0191 0001653 210.0553 232.2825 12.23472238882223
GLOBALSTAR M072         
1 31574U 07020D   26196.00751097 -.00000070  00000+0  19544-3 0  9995
2 31574  51.9948  26.1802 0001656  35.0951 131.6363 11.91658796878298
GLOBALSTAR M066         
1 32265U 07048C   26195.70588006 -.00000061  00000+0  28742-3 0  9997
2 32265  51.9610 338.9151 0005617 100.5943   1.9845 12.30389360863619
GLOBALSTAR M079         
1 37188U 10054A   26195.86075347 -.00000102  00000+0  91912-5 0  9990
2 37188  52.0053  24.4276 0001119  77.0818  29.8542 12.62266417726048
GLOBALSTAR M074         
1 37189U 10054B   26195.72312331 -.00000103  00000+0  54413-5 0  9999
2 37189  52.0032  24.1076 0000868  92.6101 348.5918 12.62262019726636
GLOBALSTAR M076         
1 37190U 10054C   26196.00594284 -.00000084  00000+0  11314-3 0  9991
2 37190  52.0043  23.4522 0001092  92.2924  74.6130 12.62262411726388
GLOBALSTAR M077         
1 37191U 10054D   26196.13813913 -.00000100  00000+0 -39887-3 0  9994
2 37191  51.9955 108.3514 0002271 225.1845 282.4065 11.67547472724406
GLOBALSTAR M075         
1 37192U 10054E   26196.01329294 -.00000090  00000+0  76821-4 0  9993
2 37192  51.9953  65.4683 0000751  64.7636  76.0712 12.62267841725458
GLOBALSTAR M073         
1 37193U 10054F   26195.60456110 -.00000105  00000+0 -65419-5 0  9996
2 37193  52.0080 340.8348 0001068  96.0877 344.8315 12.62266896727396
GLOBALSTAR M083         
1 37739U 11033A   26195.52341936 -.00000075  00000+0  15963-3 0  9992
2 37739  51.9869 289.2745 0000783 106.0658 267.2317 12.62264144696405
GLOBALSTAR M088         
1 37740U 11033B   26196.14476110 -.00000113  00000+0 -53796-4 0  9997
2 37740  52.0185 193.8756 0000044 117.8870 318.9565 12.62269445692020
GLOBALSTAR M091         
1 37741U 11033C   26196.07936786 -.00000123  00000+0 -10813-3 0  9993
2 37741  51.9980 156.9986 0000421  22.7023  57.4452 12.62264243692807
GLOBALSTAR M085         
1 37742U 11033D   26196.15994703 -.00000101  00000+0  17363-4 0  9999
2 37742  52.0123 108.0700 0000777  40.8993 105.6049 12.62264320693324
GLOBALSTAR M081         
1 37743U 11033E   26196.18703433 -.00000109  00000+0 -26973-4 0  9997
2 37743  51.9952 110.3917 0000667  54.8676  94.6303 12.62265267693477
GLOBALSTAR M089         
1 37744U 11033F   26196.07119713 -.00000090  00000+0  77649-4 0  9992
2 37744  51.9936  64.8979 0000697  89.4454  74.5153 12.62267582694307
GLOBALSTAR M084         
1 38040U 11080A   26195.57626521 -.00000084  00000+0  11270-3 0  9998
2 38040  52.0022 293.9022 0000849 127.8707 245.7709 12.62263488672223
GLOBALSTAR M080         
1 38041U 11080B   26195.54766304 -.00000080  00000+0  13249-3 0  9994
2 38041  52.0069 295.7171 0000308  83.6856 289.7459 12.62257441672349
GLOBALSTAR M082         
1 38042U 11080C   26196.11818191 -.00000070  00000+0  18585-3 0  9998
2 38042  52.0061 249.4843 0000183  88.3542 288.7819 12.62264223673121
GLOBALSTAR M092         
1 38043U 11080D   26195.71483120 -.00000093  00000+0  60415-4 0  9999
2 38043  52.0105 341.1090 0000789 102.5494   0.1646 12.62267766671523
GLOBALSTAR M090         
1 38044U 11080E   26196.06333205 -.00000050  00000+0  29896-3 0  9997
2 38044  52.0106 243.6162 0000428  90.9724 275.5730 12.62269550673232
GLOBALSTAR M086         
1 38045U 11080F   26196.16989557 -.00000086  00000+0  98629-4 0  9996
2 38045  51.9879 243.1747 0001512 111.7031 283.0239 12.62287764673190
GLOBALSTAR M097         
1 39072U 13005A   26196.03567771 -.00000129  00000+0 -14019-3 0  9991
2 39072  52.0028 158.5617 0000434  39.8828 320.2070 12.62271393620426
GLOBALSTAR M093         
1 39073U 13005B   26196.16727898 -.00000121  00000+0 -95205-4 0  9993
2 39073  52.0089 151.5186 0000648  44.0148 316.0770 12.62266314620391
GLOBALSTAR M094         
1 39074U 13005C   26196.00876541 -.00000104  00000+0 -13186-5 0  9997
2 39074  51.9973  66.0909 0000990  62.0103 298.0864 12.62264165621987
GLOBALSTAR M096         
1 39075U 13005D   26196.18066088 -.00000102  00000+0  90279-5 0  9999
2 39075  52.0070 114.3905 0000742  41.7537 318.3386 12.62265715620921
GLOBALSTAR M078         
1 39076U 13005E   26196.15378781 -.00000114  00000+0 -57557-4 0  9998
2 39076  51.9844 198.4442 0000833 337.9625  22.1206 12.62260148619549
GLOBALSTAR M095         
1 39077U 13005F   26196.18046800 -.00000115  00000+0 -64804-4 0  9990
2 39077  52.0055 196.0066 0000448  12.1685 347.9192 12.62264146619401
GLOBALSTAR M087         
1 52888U 22064A   26195.71847679 -.00000102  00000+0  72038-5 0  9995
2 52888  52.0014 338.6352 0000913  85.5772 274.5199 12.62269295194614
