OBJECT_NAME,OBJECT_ID,EPOCH,MEAN_MOTION,ECCENTRICITY,INCLINATION,RA_OF_ASC_NODE,ARG_OF_PERICENTER,MEAN_ANOMALY,EPHEMERIS_TYPE,CLASSIFICATION_TYPE,NORAD_CAT_ID,ELEMENT_SET_NO,REV_AT_EPOCH,BSTAR,MEAN_MOTION_DOT,MEAN_MOTION_DDOT
GLOBALSTAR M069,2007-020C,2026-07-15T03:16:00.378336,12.23472238,.0001653,52.0011,173.0191,210.0553,232.2825,0,U,31573,999,88222,-.18635E-3,-.113E-5,0
GLOBALSTAR M072,2007-020D,2026-07-15T00:10:48.947808,11.91658796,.0001656,51.9948,26.1802,35.0951,131.6363,0,U,31574,999,87829,.19544E-3,-.7E-6,0
GLOBALSTAR M066,2007-048C,2026-07-14T16:56:28.037184,12.30389360,.00056177,51.9610,338.9151,100.5943,1.9845,0,U,32265,999,86361,.28741856E-3,-.61E-6,0
GLOBALSTAR M079,2010-054A,2026-07-14T20:39:29.099808,12.62266417,.00011197,52.0053,24.4276,77.0818,29.8542,0,U,37188,999,72604,.9191188E-5,-.102E-5,0
GLOBALSTAR M074,2010-054B,2026-07-14T17:21:17.853984,12.62262019,.00008681,52.0032,24.1076,92.6101,348.5918,0,U,37189,999,72663,.5441291E-5,-.103E-5,0
GLOBALSTAR M076,2010-054C,2026-07-15T00:08:33.461376,12.62262411,.0001092,52.0043,23.4522,92.2924,74.6130,0,U,37190,999,72638,.11314E-3,-.84E-6,0
GLOBALSTAR M077,2010-054D,2026-07-15T03:18:55.220832,11.67547472,.0002271,51.9955,108.3514,225.1845,282.4065,0,U,37191,999,72440,-.39887E-3,-.1E-5,0
GLOBALSTAR M075,2010-054E,2026-07-15T00:19:08.510016,12.62267841,.0000751,51.9953,65.4683,64.7636,76.0712,0,U,37192,999,72545,.76821E-4,-.9E-6,0
GLOBALSTAR M073,2010-054F,2026-07-14T14:30:34.079040,12.62266896,.0001068,52.0080,340.8348,96.0877,344.8315,0,U,37193,999,72739,-.65419E-5,-.105E-5,0
GLOBALSTAR M083,2011-033A,2026-07-14T12:33:43.432704,12.62264144,.00007835,51.9869,289.2745,106.0658,267.2317,0,U,37739,999,69640,.15962991E-3,-.75E-6,0
GLOBALSTAR M088,2011-033B,2026-07-15T03:28:27.359040,12.62269445,.0000044,52.0185,193.8756,117.8870,318.9565,0,U,37740,999,69202,-.53796E-4,-.113E-5,0
GLOBALSTAR M091,2011-033C,2026-07-15T01:54:17.383104,12.62264243,.0000421,51.9980,156.9986,22.7023,57.4452,0,U,37741,999,69280,-.10813E-3,-.123E-5,0
GLOBALSTAR M085,2011-033D,2026-07-15T03:50:19.423392,12.62264320,.0000777,52.0123,108.0700,40.8993,105.6049,0,U,37742,999,69332,.17363E-4,-.101E-5,0
GLOBALSTAR M081,2011-033E,2026-07-15T04:29:19.766112,12.62265267,.0000667,51.9952,110.3917,54.8676,94.6303,0,U,37743,999,69347,-.26973E-4,-.109E-5,0
GLOBALSTAR M089,2011-033F,2026-07-15T01:42:31.432032,12.62267582,.0000697,51.9936,64.8979,89.4454,74.5153,0,U,37744,999,69430,.77649E-4,-.9E-6,0
GLOBALSTAR M084,2011-080A,2026-07-14T13:49:49.314144,12.62263488,.0000849,52.0022,293.9022,127.8707,245.7709,0,U,38040,999,67222,.1127E-3,-.84E-6,0
GLOBALSTAR M080,2011-080B,2026-07-14T13:08:38.086656,12.62257441,.00003085,52.0069,295.7171,83.6856,289.7459,0,U,38041,999,67234,.13249163E-3,-.8E-6,0
GLOBALSTAR M082,2011-080C,2026-07-15T02:50:10.917024,12.62264223,.0000183,52.0061,249.4843,88.3542,288.7819,0,U,38042,999,67312,.18585E-3,-.7E-6,0
GLOBALSTAR M092,2011-080D,2026-07-14T17:09:21.415680,12.62267766,.00007894,52.0105,341.1090,102.5494,0.1646,0,U,38043,999,67152,.60414712E-4,-.93E-6,0
GLOBALSTAR M090,2011-080E,2026-07-15T01:31:11.889120,12.62269550,.0000428,52.0106,243.6162,90.9724,275.5730,0,U,38044,999,67323,.29896E-3,-.5E-6,0
GLOBALSTAR M086,2011-080F,2026-07-15T04:04:38.977248,12.62287764,.0001512,51.9879,243.1747,111.7031,283.0239,0,U,38045,999,67319,.98629E-4,-.86E-6,0
GLOBALSTAR M097,2013-005A,2026-07-15T00:51:22.554144,12.62271393,.0000434,52.0028,158.5617,39.8828,320.2070,0,U,39072,999,62042,-.14019E-3,-.129E-5,0
GLOBALSTAR M093,2013-005B,2026-07-15T04:00:52.903872,12.62266314,.0000648,52.0089,151.5186,44.0148,316.0770,0,U,39073,999,62039,-.95205E-4,-.121E-5,0
GLOBALSTAR M094,2013-005C,2026-07-15T00:12:37.331424,12.62264165,.000099,51.9973,66.0909,62.0103,298.0864,0,U,39074,999,62198,-.13186E-5,-.104E-5,0
GLOBALSTAR M096,2013-005D,2026-07-15T04:20:09.100032,12.62265715,.0000742,52.0070,114.3905,41.7537,318.3386,0,U,39075,999,62092,.90279E-5,-.102E-5,0
GLOBALSTAR M078,2013-005E,2026-07-15T03:41:27.266784,12.62260148,.0000833,51.9844,198.4442,337.9625,22.1206,0,U,39076,999,61954,-.57557E-4,-.114E-5,0
GLOBALSTAR M095,2013-005F,2026-07-15T04:19:52.435200,12.62264146,.0000448,52.0055,196.0066,12.1685,347.9192,0,U,39077,999,61940,-.64804E-4,-.115E-5,0
GLOBALSTAR M087,2022-064A,2026-07-14T17:14:36.394656,12.62269295,.00009137,52.0014,338.6352,85.5772,274.5199,0,U,52888,999,19461,.7203842E-5,-.102E-5,0
